OSCAR 7 (AO-7)          
1 07530U 74089B   18198.51150168 -.00000024  00000-0  13120-3 0  9994
2 07530 101.6890 165.3803 0011673 277.6386 199.4063 12.53633436998391
UOSAT 2 (UO-11)         
1 14781U 84021B   18198.16020160  .00000053  00000-0  12682-4 0  9990
2 14781  97.6468 233.0945 0008202 355.4083   4.7055 14.83017723848882
LUSAT (LO-19)           
1 20442U 90005G   18197.88969195  .00000006  00000-0  18334-4 0  9996
2 20442  98.6108 136.2007 0012878  65.0076 295.2444 14.32900082488082
ITAMSAT (IO-26)         
1 22826U 93061D   18198.17686055 -.00000013  00000-0  12817-4 0  9992
2 22826  98.8585 174.8733 0007868 246.4401 113.5955 14.30366345294041
RADIO ROSTO (RS-15)     
1 23439U 94085A   18197.79930216 -.00000015  00000-0  77863-3 0  9991
2 23439  64.8187 300.9432 0156465 176.7728 350.0767 11.27567630969902
JAS-2 (FO-29)           
1 24278U 96046B   18197.80788635 -.00000070  00000-0 -36509-4 0  9995
2 24278  98.5164  32.4787 0350988  34.2222 328.1008 13.53084537 82244
TECHSAT 1B (GO-32)      
1 25397U 98043D   18197.90134206 -.00000014  00000-0  13014-4 0  9990
2 25397  98.6507 137.8504 0000587   0.2173 359.9006 14.23648315 39735
ISS (ZARYA)             
1 25544U 98067A   18198.88448015  .00001397  00000-0  28483-4 0  9994
2 25544  51.6394 225.7037 0003935 327.7990  90.9256 15.53985270123296
PCSAT (NO-44)           
1 26931U 01043C   18197.92934904 -.00000037  00000-0  17795-4 0  9999
2 26931  67.0508 152.6650 0007996 270.4138  89.6047 14.30510873876737
SAUDISAT 1C (SO-50)     
1 27607U 02058C   18197.89929511 -.00000044  00000-0  14550-4 0  9995
2 27607  64.5556 359.2120 0068290 321.9579  37.6710 14.75464607837217
CUTE-1 (CO-55)          
1 27844U 03031E   18198.07120036  .00000030  00000-0  33305-4 0  9999
2 27844  98.6861 206.2863 0008588 287.8543  72.1698 14.22123019780449
CUBESAT XI-IV (CO-57)   
1 27848U 03031J   18198.53149719  .00000025  00000-0  31144-4 0  9996
2 27848  98.6946 207.1477 0008590 298.1834  61.8476 14.21726156780370
MOZHAYETS 4 (RS-22)     
1 27939U 03042A   18198.53394756  .00000051  00000-0  17703-4 0  9996
2 27939  97.9948 336.8910 0014087  56.4190   2.5095 14.66700965791263
CUBESAT XI-V (CO-58)    
1 28895U 05043F   18197.94783385  .00000101  00000-0  28253-4 0  9993
2 28895  97.9129 348.2037 0016209 340.0426  20.0141 14.63562479677998
CUTE-1.7+APD II (CO-65) 
1 32785U 08021C   18198.50731197  .00000170  00000-0  24011-4 0  9996
2 32785  97.5465 209.2374 0011710 301.9089  58.0989 14.88145896553680
DELFI-C3 (DO-64)        
1 32789U 08021G   18198.14166923  .00000819  00000-0  60050-4 0  9992
2 32789  97.5101 252.1906 0012272 187.5748 172.5296 15.06159945556297
SEEDS II (CO-66)        
1 32791U 08021J   18198.00941200  .00000252  00000-0  31128-4 0  9994
2 32791  97.5349 214.1888 0011814 280.7711  79.2178 14.90586374553952
YUBILEINY (RS-30)       
1 32953U 08025A   18198.54289805  .00000019  00000-0  63146-4 0  9999
2 32953  82.5038 353.7961 0019834 142.0314 218.2168 12.43084302460548
KKS-1 (KISEKI)          
1 33499U 09002H   18198.15607135  .00000070  00000-0  18455-4 0  9998
2 33499  98.3570  20.8961 0008912 189.5180 170.5861 14.75344734509600
SWISSCUBE               
1 35932U 09051B   18197.98330996  .00000097  00000-0  32874-4 0  9994
2 35932  98.5492 349.8654 0008837 115.7801 244.4309 14.56175859467777
BEESAT                  
1 35933U 09051C   18198.42067951  .00000089  00000-0  31103-4 0  9998
2 35933  98.5530 351.8803 0006906 124.6938 235.4910 14.56278159467949
ITUPSAT 1               
1 35935U 09051E   18197.87382802  .00000053  00000-0  23390-4 0  9993
2 35935  98.5642 351.5721 0009238 123.6264 236.5815 14.55453421467642
XIWANG-1 (HOPE-1)       
1 36122U 09072B   18197.95846402 -.00000067  00000-0 -65720-4 0  9995
2 36122 100.0743 211.1998 0008058  47.9862 312.1937 13.16345409412468
JUGNU                   
1 37839U 11058B   18197.38754909  .00000311  00000-0  23788-4 0  9993
2 37839  19.9600 220.1862 0018789 208.1629 276.1016 14.12623686349502
SRMSAT                  
1 37841U 11058D   18197.59480233  .00000301  00000-0  20141-4 0  9994
2 37841  19.9718 268.7411 0012003  93.0833  57.4370 14.10609948348947
M-CUBED & EXP-1 PRIME   
1 37855U 11061F   18198.20031499  .00000630  00000-0  40313-4 0  9996
2 37855 101.7151 276.0837 0176169 353.4737   6.4181 15.04537029366169
STRAND-1                
1 39090U 13009E   18198.09161124 -.00000000  00000-0  15220-4 0  9990
2 39090  98.5194  44.0832 0008631 201.5450 158.5373 14.35033095282114
SOMP                    
1 39134U 13015E   18197.95420559  .00000851  00000-0  49627-4 0  9991
2 39134  64.8635  30.6123 0008337 216.2822 143.7741 15.19252261289047
BEESAT-3                
1 39135U 13015F   18197.95919717  .00000613  00000-0  41033-4 0  9990
2 39135  64.8695  44.3408 0019052 237.7903 122.1376 15.16748679288770
BEESAT-2                
1 39136U 13015G   18197.93941731  .00000492  00000-0  35398-4 0  9992
2 39136  64.8696  47.2719 0019576 233.3062 126.6265 15.16210463288713
ZACUBE-1 (TSHEPISOSAT)  
1 39417U 13066B   18198.11128367  .00000131  00000-0  22871-4 0  9995
2 39417  97.5852 225.1493 0060461  58.0790 302.6284 14.80953619251227
GOMX 1                  
1 39430U 13066Q   18198.54587197  .00000152  00000-0  36818-4 0  9996
2 39430  97.6994 173.2380 0150199 234.4326 124.2798 14.59098495247570
CUBEBUG-2 (LO-74)       
1 39440U 13066AA  18197.90791696  .00000162  00000-0  29380-4 0  9994
2 39440  97.6003 211.3777 0082076  98.8806 262.1708 14.75691795249103
FUNCUBE-1 (AO-73)       
1 39444U 13066AE  18197.95635490  .00000209  00000-0  32110-4 0  9999
2 39444  97.5860 226.5655 0059486  53.9655 306.7051 14.81739310249472
UWE-3                   
1 39446U 13066AG  18198.55661497  .00000166  00000-0  28585-4 0  9997
2 39446  97.5912 218.3725 0071808  77.0885 283.8335 14.78226896249604
SPROUT                  
1 39770U 14029E   18198.33860669  .00000585  00000-0  71546-4 0  9995
2 39770  97.8789 299.1378 0010514 106.8261 253.4101 14.86897776224849
UNISAT-6                
1 40012U 14033C   18198.22243574  .00000153  00000-0  30167-4 0  9994
2 40012  97.8043  73.3752 0059895 102.2252 258.5673 14.73838080219120
DUCHIFAT-1              
1 40021U 14033M   18198.33893961  .00000332  00000-0  39948-4 0  9992
2 40021  97.9149 117.1123 0014597  79.9815 280.3049 14.90338957221447
FUNCUBE-3 (EO-79)       
1 40025U 14033R   18197.92264272  .00000237  00000-0  31389-4 0  9992
2 40025  97.9039 113.2598 0013961  87.3415 272.9399 14.88737874220706
NUDT-PHONESAT           
1 40900U 15049B   18198.49420964  .00001757  00000-0  81206-4 0  9998
2 40900  97.4406 206.3976 0011645 285.6940  74.3011 15.21450113156527
ZDPS 2A                 
1 40901U 15049C   18198.48336305  .00000714  00000-0  39335-4 0  9991
2 40901  97.4584 204.3565 0012101 295.9014  64.0972 15.17148617156251
ZDPS 2B                 
1 40902U 15049D   18198.52714685  .00000719  00000-0  39784-4 0  9991
2 40902  97.4485 202.3734 0012130 292.4427  67.5521 15.16942862156240
XW-2A                   
1 40903U 15049E   18198.44510775  .00001592  00000-0  41131-4 0  9996
2 40903  97.3819 233.5995 0012338 282.8340  77.1528 15.40617666158461
KAITUO 1A               
1 40904U 15049F   18198.40047355  .00000531  00000-0  31902-4 0  9999
2 40904  97.4582 201.4214 0013296 297.4818 191.7833 15.15056952156078
2015-049G               
1 40905U 15049G   18198.48587622  .00000334  00000-0  21942-4 0  9998
2 40905  97.4590 199.5307 0014190 288.1615  71.8072 15.14004465156001
XW-2C                   
1 40906U 15049H   18198.43205657  .00000509  00000-0  30540-4 0  9997
2 40906  97.4599 201.3699 0013382 287.3183  72.6585 15.15237859156071
XW-2D                   
1 40907U 15049J   18198.51352635  .00000578  00000-0  34076-4 0  9990
2 40907  97.4574 201.1433 0012715 284.5538  75.4284 15.15392352156090
LILACSAT 2              
1 40908U 15049K   18198.55704621  .00000312  00000-0  21016-4 0  9997
2 40908  97.4686 200.5053 0014410 286.5729  73.3919 15.13540145155964
XW-2F                   
1 40910U 15049M   18198.24010397  .00000766  00000-0  42592-4 0  9991
2 40910  97.4572 202.2447 0013371 280.4623  79.5103 15.16606426156016
XW-2B                   
1 40911U 15049N   18198.53216392  .00000573  00000-0  33872-4 0  9994
2 40911  97.4608 201.7107 0012631 285.2068  74.7767 15.15335230155998
KAITUO 1B               
1 40912U 15049P   18198.39708552  .00001036  00000-0  52937-4 0  9991
2 40912  97.4499 205.2982 0013527 266.5651 199.3025 15.18833901156254
TIANWANG 1C (TW-1C)     
1 40926U 15051B   18198.37461861  .00007010  00000-0  12873-3 0  9998
2 40926  97.1805 240.5812 0010619 155.6501 329.0523 15.49500446157987
TIANWANG 1A (TW-1A)     
1 40928U 15051D   18198.38565553  .00002064  00000-0  55716-4 0  9992
2 40928  97.1827 231.7762 0010826 204.0299 282.2249 15.38853372157423
LAPAN-A2 (IO-86)        
1 40931U 15052B   18198.79117311  .00000594  00000-0 -62111-5 0  9992
2 40931   6.0023 291.8564 0012243  79.6246 280.5725 14.76578811151533
E-ST@R-II               
1 41459U 16025D   18198.37465282  .00001519  00000-0  82608-4 0  9995
2 41459  98.1353 262.6648 0171539  47.7534 313.8084 15.04508347121967
AAUSAT 4                
1 41460U 16025E   18198.39047007  .00002686  00000-0  14113-3 0  9991
2 41460  98.1290 263.2293 0162232  43.2966 318.0872 15.05986015122036
NUSAT 1 (LO-87)         
1 41557U 16033B   18198.84136105  .00277417  00000-0  98276-2 0  9992
2 41557  97.4263 283.0039 0017129  55.0041  64.6558 15.27788871118834
BEESAT-4                
1 41619U 16040W   18198.24268076  .00001352  00000-0  61800-4 0  9994
2 41619  97.4132 260.9717 0013121 121.1372 239.1153 15.22208655102661
ALSAT 1N                
1 41789U 16059G   18198.36892659  .00000048  00000-0  18273-4 0  9992
2 41789  98.1177 260.7229 0028314 355.5790   4.5160 14.64165975 96430
CAS-2T & KS-1Q          
1 41847U 16066G   18198.17335562  .00000045  00000-0  16898-4 0  9997
2 41847  98.7481 227.7022 0366778 155.2474 206.6817 14.37905953 88631
NAYIF-1 (EO-88)         
1 42017U 17008BX  18197.89583269  .00001241  00000-0  53352-4 0  9996
2 42017  97.4464 262.7753 0004705 277.1489  82.9214 15.24531529 78598
LILACSAT-1              
1 42725U 98067ME  18198.47116902  .00026250  00000-0  21149-3 0  9992
2 42725  51.6343 203.4890 0005040   0.7119 359.3885 15.70707634 65278
MAX VALIER SAT          
1 42778U 17036P   18197.64717721  .00000834  00000-0  40250-4 0  9996
2 42778  97.4008 256.8673 0012393 333.8418  26.2191 15.21349778 58981
FOX-1B (AO-91)          
1 43017U 17073E   18197.79647138  .00000259  00000-0  25838-4 0  9990
2 43017  97.7073 127.6970 0259710 174.9274 185.4667 14.78106744 35489
FOX-1D (AO-92)          
1 43137U 18004AC  18197.86599661  .00000873  00000-0  40455-4 0  9997
2 43137  97.5316 260.6464 0009532   7.1796 352.9575 15.22773195 28231
